[
	{
		"address_id" : address_id,
		"street" : "street",
		"town" : "town",
		"state" : "state",
		"zipcode" : "zipcode",
		"nearest_intersec" : "nearest_intersec",
		"room_no" : "room_no"
	},
	{
		"address_id" : 5,
		"street" : "Hoepker",
		"town" : "Asheville",
		"state" : "North Carolina",
		"zipcode" : "28815",
		"nearest_intersec" : "E88",
		"room_no" : "213"
	},
	{
		"address_id" : 10,
		"street" : "Namekagon",
		"town" : "Washington",
		"state" : "District of Columbia",
		"zipcode" : "20067",
		"nearest_intersec" : "E21",
		"room_no" : "312"
	},
	{
		"address_id" : 12,
		"street" : "Trailsway",
		"town" : "Stockton",
		"state" : "California",
		"zipcode" : "95298",
		"nearest_intersec" : "E7",
		"room_no" : "324"
	},
	{
		"address_id" : 20,
		"street" : "Morningstar",
		"town" : "Kalamazoo",
		"state" : "Michigan",
		"zipcode" : "49048",
		"nearest_intersec" : "E60",
		"room_no" : "34"
	},
	{
		"address_id" : 26,
		"street" : "Beilfuss",
		"town" : "Hollywood",
		"state" : "Florida",
		"zipcode" : "33028",
		"nearest_intersec" : "E7",
		"room_no" : "54"
	},
	{
		"address_id" : 27,
		"street" : "Katie",
		"town" : "Portland",
		"state" : "Maine",
		"zipcode" : "4109",
		"nearest_intersec" : "E7",
		"room_no" : "757"
	},
	{
		"address_id" : 32,
		"street" : "Stephen",
		"town" : "Santa Barbara",
		"state" : "California",
		"zipcode" : "93111",
		"nearest_intersec" : "E7",
		"room_no" : "53"
	},
	{
		"address_id" : 38,
		"street" : "Bartillon",
		"town" : "Reading",
		"state" : "Pennsylvania",
		"zipcode" : "19610",
		"nearest_intersec" : "E7",
		"room_no" : "234"
	},
	{
		"address_id" : 42,
		"street" : "Ramsey",
		"town" : "Dallas",
		"state" : "Texas",
		"zipcode" : "75205",
		"nearest_intersec" : "E7",
		"room_no" : "6535"
	},
	{
		"address_id" : 43,
		"street" : "Scoville",
		"town" : "Miami",
		"state" : "Florida",
		"zipcode" : "33185",
		"nearest_intersec" : "E60",
		"room_no" : "44"
	},
	{
		"address_id" : 57,
		"street" : "Schurz",
		"town" : "Prescott",
		"state" : "Arizona",
		"zipcode" : "86305",
		"nearest_intersec" : "E7",
		"room_no" : "876"
	},
	{
		"address_id" : 59,
		"street" : "Cordelia",
		"town" : "Spartanburg",
		"state" : "South Carolina",
		"zipcode" : "29305",
		"nearest_intersec" : "E7",
		"room_no" : "534"
	},
	{
		"address_id" : 60,
		"street" : "Cordelia",
		"town" : "Oakland",
		"state" : "California",
		"zipcode" : "94627",
		"nearest_intersec" : "E21",
		"room_no" : "546"
	},
	{
		"address_id" : 63,
		"street" : "Cottonwood",
		"town" : "Lafayette",
		"state" : "Louisiana",
		"zipcode" : "70593",
		"nearest_intersec" : "E60",
		"room_no" : "753"
	},
	{
		"address_id" : 67,
		"street" : "Elmside",
		"town" : "Syracuse",
		"state" : "New York",
		"zipcode" : "13251",
		"nearest_intersec" : "E60",
		"room_no" : "45"
	},
	{
		"address_id" : 68,
		"street" : "Nobel",
		"town" : "Minneapolis",
		"state" : "Minnesota",
		"zipcode" : "55487",
		"nearest_intersec" : "E7",
		"room_no" : "654"
	},
	{
		"address_id" : 69,
		"street" : "Dexter",
		"town" : "Arlington",
		"state" : "Texas",
		"zipcode" : "76011",
		"nearest_intersec" : "E60",
		"room_no" : "213"
	},
	{
		"address_id" : 75,
		"street" : "Luster",
		"town" : "New Haven",
		"state" : "Connecticut",
		"zipcode" : "6538",
		"nearest_intersec" : "E7",
		"room_no" : "312"
	},
	{
		"address_id" : 79,
		"street" : "Meadow Vale",
		"town" : "Lubbock",
		"state" : "Texas",
		"zipcode" : "79410",
		"nearest_intersec" : "E21",
		"room_no" : "324"
	},
	{
		"address_id" : 80,
		"street" : "Sutherland",
		"town" : "Albuquerque",
		"state" : "New Mexico",
		"zipcode" : "87110",
		"nearest_intersec" : "E60",
		"room_no" : "34"
	},
	{
		"address_id" : 82,
		"street" : "Thackeray",
		"town" : "Stamford",
		"state" : "Connecticut",
		"zipcode" : "6905",
		"nearest_intersec" : "E88",
		"room_no" : "54"
	},
	{
		"address_id" : 87,
		"street" : "Butternut",
		"town" : "Houston",
		"state" : "Texas",
		"zipcode" : "77010",
		"nearest_intersec" : "E88",
		"room_no" : "757"
	},
	{
		"address_id" : 88,
		"street" : "Caliangt",
		"town" : "Kalamazoo",
		"state" : "Michigan",
		"zipcode" : "49006",
		"nearest_intersec" : "E88",
		"room_no" : "53"
	},
	{
		"address_id" : 91,
		"street" : "Union",
		"town" : "Portland",
		"state" : "Oregon",
		"zipcode" : "97255",
		"nearest_intersec" : "E88",
		"room_no" : "234"
	},
	{
		"address_id" : 92,
		"street" : "Ohio",
		"town" : "Green Bay",
		"state" : "Wisconsin",
		"zipcode" : "54313",
		"nearest_intersec" : "E88",
		"room_no" : "6535"
	},
	{
		"address_id" : 96,
		"street" : "Debra",
		"town" : "Billings",
		"state" : "Montana",
		"zipcode" : "59105",
		"nearest_intersec" : "E60",
		"room_no" : "44"
	},
	{
		"address_id" : 1,
		"street" : "Green",
		"town" : "Charlottesville",
		"state" : "Virginia",
		"zipcode" : "22903",
		"nearest_intersec" : "E88",
		"room_no" : ""
	},
	{
		"address_id" : 2,
		"street" : "Memorial",
		"town" : "Dayton",
		"state" : "Ohio",
		"zipcode" : "45419",
		"nearest_intersec" : "E88",
		"room_no" : ""
	},
	{
		"address_id" : 3,
		"street" : "Heffernan",
		"town" : "South Bend",
		"state" : "Indiana",
		"zipcode" : "46634",
		"nearest_intersec" : "E60",
		"room_no" : ""
	},
	{
		"address_id" : 4,
		"street" : "Superior",
		"town" : "Chicago",
		"state" : "Illinois",
		"zipcode" : "60609",
		"nearest_intersec" : "E88",
		"room_no" : ""
	},
	{
		"address_id" : 6,
		"street" : "Harper",
		"town" : "Honolulu",
		"state" : "Hawaii",
		"zipcode" : "96815",
		"nearest_intersec" : "E88",
		"room_no" : ""
	},
	{
		"address_id" : 7,
		"street" : "Shoshone",
		"town" : "Appleton",
		"state" : "Wisconsin",
		"zipcode" : "54915",
		"nearest_intersec" : "E60",
		"room_no" : ""
	},
	{
		"address_id" : 8,
		"street" : "Hovde",
		"town" : "Oklahoma City",
		"state" : "Oklahoma",
		"zipcode" : "73190",
		"nearest_intersec" : "E88",
		"room_no" : ""
	},
	{
		"address_id" : 9,
		"street" : "Kings",
		"town" : "Orlando",
		"state" : "Florida",
		"zipcode" : "32868",
		"nearest_intersec" : "E60",
		"room_no" : ""
	},
	{
		"address_id" : 11,
		"street" : "Dorton",
		"town" : "Evansville",
		"state" : "Indiana",
		"zipcode" : "47719",
		"nearest_intersec" : "E7",
		"room_no" : ""
	},
	{
		"address_id" : 13,
		"street" : "Meadow Valley",
		"town" : "San Antonio",
		"state" : "Texas",
		"zipcode" : "78255",
		"nearest_intersec" : "E88",
		"room_no" : ""
	},
	{
		"address_id" : 14,
		"street" : "Huxley",
		"town" : "Washington",
		"state" : "District of Columbia",
		"zipcode" : "20299",
		"nearest_intersec" : "E7",
		"room_no" : ""
	},
	{
		"address_id" : 15,
		"street" : "Starling",
		"town" : "Orlando",
		"state" : "Florida",
		"zipcode" : "32813",
		"nearest_intersec" : "E88",
		"room_no" : ""
	},
	{
		"address_id" : 16,
		"street" : "Fulton",
		"town" : "Los Angeles",
		"state" : "California",
		"zipcode" : "90081",
		"nearest_intersec" : "E60",
		"room_no" : ""
	},
	{
		"address_id" : 17,
		"street" : "Tennessee",
		"town" : "Washington",
		"state" : "District of Columbia",
		"zipcode" : "20220",
		"nearest_intersec" : "E21",
		"room_no" : ""
	},
	{
		"address_id" : 18,
		"street" : "Nelson",
		"town" : "Los Angeles",
		"state" : "California",
		"zipcode" : "90087",
		"nearest_intersec" : "E7",
		"room_no" : ""
	},
	{
		"address_id" : 19,
		"street" : "Fremont",
		"town" : "Vero Beach",
		"state" : "Florida",
		"zipcode" : "32969",
		"nearest_intersec" : "E7",
		"room_no" : ""
	},
	{
		"address_id" : 21,
		"street" : "Fulton",
		"town" : "Huntsville",
		"state" : "Alabama",
		"zipcode" : "35895",
		"nearest_intersec" : "E7",
		"room_no" : ""
	},
	{
		"address_id" : 22,
		"street" : "Burning Wood",
		"town" : "Hampton",
		"state" : "Virginia",
		"zipcode" : "23663",
		"nearest_intersec" : "E88",
		"room_no" : ""
	},
	{
		"address_id" : 23,
		"street" : "International",
		"town" : "Denver",
		"state" : "Colorado",
		"zipcode" : "80204",
		"nearest_intersec" : "E88",
		"room_no" : ""
	},
	{
		"address_id" : 24,
		"street" : "Sloan",
		"town" : "Lansing",
		"state" : "Michigan",
		"zipcode" : "48912",
		"nearest_intersec" : "E88",
		"room_no" : ""
	},
	{
		"address_id" : 25,
		"street" : "Tennessee",
		"town" : "Albany",
		"state" : "New York",
		"zipcode" : "12222",
		"nearest_intersec" : "E21",
		"room_no" : ""
	},
	{
		"address_id" : 28,
		"street" : "Lindbergh",
		"town" : "Flushing",
		"state" : "New York",
		"zipcode" : "11388",
		"nearest_intersec" : "E21",
		"room_no" : ""
	},
	{
		"address_id" : 29,
		"street" : "Springs",
		"town" : "Pasadena",
		"state" : "California",
		"zipcode" : "91186",
		"nearest_intersec" : "E7",
		"room_no" : ""
	},
	{
		"address_id" : 30,
		"street" : "Clemons",
		"town" : "Houston",
		"state" : "Texas",
		"zipcode" : "77050",
		"nearest_intersec" : "E7",
		"room_no" : ""
	},
	{
		"address_id" : 31,
		"street" : "Bunker Hill",
		"town" : "Lincoln",
		"state" : "Nebraska",
		"zipcode" : "68531",
		"nearest_intersec" : "E7",
		"room_no" : ""
	},
	{
		"address_id" : 33,
		"street" : "Luster",
		"town" : "Fort Pierce",
		"state" : "Florida",
		"zipcode" : "34949",
		"nearest_intersec" : "E21",
		"room_no" : ""
	},
	{
		"address_id" : 34,
		"street" : "Randy",
		"town" : "Columbus",
		"state" : "Ohio",
		"zipcode" : "43210",
		"nearest_intersec" : "E21",
		"room_no" : ""
	},
	{
		"address_id" : 35,
		"street" : "Forest Run",
		"town" : "Boston",
		"state" : "Massachusetts",
		"zipcode" : "2208",
		"nearest_intersec" : "E21",
		"room_no" : ""
	},
	{
		"address_id" : 36,
		"street" : "Carey",
		"town" : "East Saint Louis",
		"state" : "Illinois",
		"zipcode" : "62205",
		"nearest_intersec" : "E60",
		"room_no" : ""
	},
	{
		"address_id" : 37,
		"street" : "Hollow Ridge",
		"town" : "Richmond",
		"state" : "Virginia",
		"zipcode" : "23208",
		"nearest_intersec" : "E21",
		"room_no" : ""
	},
	{
		"address_id" : 39,
		"street" : "Brentwood",
		"town" : "New York City",
		"state" : "New York",
		"zipcode" : "10184",
		"nearest_intersec" : "E88",
		"room_no" : ""
	},
	{
		"address_id" : 40,
		"street" : "Hudson",
		"town" : "El Paso",
		"state" : "Texas",
		"zipcode" : "88525",
		"nearest_intersec" : "E88",
		"room_no" : ""
	},
	{
		"address_id" : 41,
		"street" : "Schiller",
		"town" : "Atlanta",
		"state" : "Georgia",
		"zipcode" : "30380",
		"nearest_intersec" : "E21",
		"room_no" : ""
	},
	{
		"address_id" : 44,
		"street" : "Eastlawn",
		"town" : "Austin",
		"state" : "Texas",
		"zipcode" : "78744",
		"nearest_intersec" : "E60",
		"room_no" : ""
	},
	{
		"address_id" : 45,
		"street" : "Meadow Vale",
		"town" : "El Paso",
		"state" : "Texas",
		"zipcode" : "88574",
		"nearest_intersec" : "E60",
		"room_no" : ""
	},
	{
		"address_id" : 46,
		"street" : "Northfield",
		"town" : "Fort Wayne",
		"state" : "Indiana",
		"zipcode" : "46805",
		"nearest_intersec" : "E88",
		"room_no" : ""
	},
	{
		"address_id" : 47,
		"street" : "Cordelia",
		"town" : "Shawnee Mission",
		"state" : "Kansas",
		"zipcode" : "66276",
		"nearest_intersec" : "E88",
		"room_no" : ""
	},
	{
		"address_id" : 48,
		"street" : "Helena",
		"town" : "Aurora",
		"state" : "Colorado",
		"zipcode" : "80045",
		"nearest_intersec" : "E7",
		"room_no" : ""
	},
	{
		"address_id" : 49,
		"street" : "Graedel",
		"town" : "Dallas",
		"state" : "Texas",
		"zipcode" : "75367",
		"nearest_intersec" : "E7",
		"room_no" : ""
	},
	{
		"address_id" : 50,
		"street" : "Stoughton",
		"town" : "Las Vegas",
		"state" : "Nevada",
		"zipcode" : "89120",
		"nearest_intersec" : "E7",
		"room_no" : ""
	},
	{
		"address_id" : 51,
		"street" : "Hudson",
		"town" : "Boulder",
		"state" : "Colorado",
		"zipcode" : "80305",
		"nearest_intersec" : "E7",
		"room_no" : ""
	},
	{
		"address_id" : 52,
		"street" : "Badeau",
		"town" : "Honolulu",
		"state" : "Hawaii",
		"zipcode" : "96845",
		"nearest_intersec" : "E7",
		"room_no" : ""
	},
	{
		"address_id" : 53,
		"street" : "Parkside",
		"town" : "Atlanta",
		"state" : "Georgia",
		"zipcode" : "30323",
		"nearest_intersec" : "E7",
		"room_no" : ""
	},
	{
		"address_id" : 54,
		"street" : "Havey",
		"town" : "Nashville",
		"state" : "Tennessee",
		"zipcode" : "37215",
		"nearest_intersec" : "E7",
		"room_no" : ""
	},
	{
		"address_id" : 55,
		"street" : "Havey",
		"town" : "Norfolk",
		"state" : "Virginia",
		"zipcode" : "23520",
		"nearest_intersec" : "E21",
		"room_no" : ""
	},
	{
		"address_id" : 56,
		"street" : "Summer Ridge",
		"town" : "Phoenix",
		"state" : "Arizona",
		"zipcode" : "85040",
		"nearest_intersec" : "E21",
		"room_no" : ""
	},
	{
		"address_id" : 58,
		"street" : "Glendale",
		"town" : "Los Angeles",
		"state" : "California",
		"zipcode" : "90087",
		"nearest_intersec" : "E21",
		"room_no" : ""
	},
	{
		"address_id" : 61,
		"street" : "Luster",
		"town" : "Jamaica",
		"state" : "New York",
		"zipcode" : "11431",
		"nearest_intersec" : "E21",
		"room_no" : ""
	},
	{
		"address_id" : 62,
		"street" : "Clove",
		"town" : "Philadelphia",
		"state" : "Pennsylvania",
		"zipcode" : "19093",
		"nearest_intersec" : "E88",
		"room_no" : ""
	},
	{
		"address_id" : 64,
		"street" : "Lakeland",
		"town" : "Atlanta",
		"state" : "Georgia",
		"zipcode" : "30316",
		"nearest_intersec" : "E88",
		"room_no" : ""
	},
	{
		"address_id" : 65,
		"street" : "Emmet",
		"town" : "Pomona",
		"state" : "California",
		"zipcode" : "91797",
		"nearest_intersec" : "E21",
		"room_no" : ""
	},
	{
		"address_id" : 66,
		"street" : "Columbus",
		"town" : "Washington",
		"state" : "District of Columbia",
		"zipcode" : "20099",
		"nearest_intersec" : "E21",
		"room_no" : ""
	},
	{
		"address_id" : 70,
		"street" : "Rowland",
		"town" : "Tampa",
		"state" : "Florida",
		"zipcode" : "33620",
		"nearest_intersec" : "E88",
		"room_no" : ""
	},
	{
		"address_id" : 71,
		"street" : "Kinsman",
		"town" : "Saint Paul",
		"state" : "Minnesota",
		"zipcode" : "55188",
		"nearest_intersec" : "E88",
		"room_no" : ""
	},
	{
		"address_id" : 72,
		"street" : "Village",
		"town" : "Atlanta",
		"state" : "Georgia",
		"zipcode" : "30306",
		"nearest_intersec" : "E88",
		"room_no" : ""
	},
	{
		"address_id" : 73,
		"street" : "Maple",
		"town" : "San Francisco",
		"state" : "California",
		"zipcode" : "94142",
		"nearest_intersec" : "E88",
		"room_no" : ""
	},
	{
		"address_id" : 74,
		"street" : "Parkside",
		"town" : "Kansas City",
		"state" : "Missouri",
		"zipcode" : "64187",
		"nearest_intersec" : "E21",
		"room_no" : ""
	},
	{
		"address_id" : 76,
		"street" : "Hoffman",
		"town" : "Stockton",
		"state" : "California",
		"zipcode" : "95210",
		"nearest_intersec" : "E7",
		"room_no" : ""
	},
	{
		"address_id" : 77,
		"street" : "Acker",
		"town" : "Miami",
		"state" : "Florida",
		"zipcode" : "33180",
		"nearest_intersec" : "E7",
		"room_no" : ""
	},
	{
		"address_id" : 78,
		"street" : "Clove",
		"town" : "Wilmington",
		"state" : "Delaware",
		"zipcode" : "19897",
		"nearest_intersec" : "E7",
		"room_no" : ""
	},
	{
		"address_id" : 81,
		"street" : "Aberg",
		"town" : "Elizabeth",
		"state" : "New Jersey",
		"zipcode" : "7208",
		"nearest_intersec" : "E7",
		"room_no" : ""
	},
	{
		"address_id" : 83,
		"street" : "Del Mar",
		"town" : "Toledo",
		"state" : "Ohio",
		"zipcode" : "43666",
		"nearest_intersec" : "E7",
		"room_no" : ""
	},
	{
		"address_id" : 84,
		"street" : "Mitchell",
		"town" : "San Antonio",
		"state" : "Texas",
		"zipcode" : "78291",
		"nearest_intersec" : "E7",
		"room_no" : ""
	},
	{
		"address_id" : 85,
		"street" : "Vera",
		"town" : "Newark",
		"state" : "Delaware",
		"zipcode" : "19714",
		"nearest_intersec" : "E7",
		"room_no" : ""
	},
	{
		"address_id" : 86,
		"street" : "Glendale",
		"town" : "Lincoln",
		"state" : "Nebraska",
		"zipcode" : "68517",
		"nearest_intersec" : "E7",
		"room_no" : ""
	},
	{
		"address_id" : 89,
		"street" : "Northview",
		"town" : "Denton",
		"state" : "Texas",
		"zipcode" : "76210",
		"nearest_intersec" : "E21",
		"room_no" : ""
	},
	{
		"address_id" : 90,
		"street" : "Atwood",
		"town" : "Boca Raton",
		"state" : "Florida",
		"zipcode" : "33499",
		"nearest_intersec" : "E21",
		"room_no" : ""
	},
	{
		"address_id" : 93,
		"street" : "Grasskamp",
		"town" : "Albuquerque",
		"state" : "New Mexico",
		"zipcode" : "87201",
		"nearest_intersec" : "E21",
		"room_no" : ""
	},
	{
		"address_id" : 94,
		"street" : "Pankratz",
		"town" : "Oceanside",
		"state" : "California",
		"zipcode" : "92056",
		"nearest_intersec" : "E60",
		"room_no" : ""
	},
	{
		"address_id" : 95,
		"street" : "Buhler",
		"town" : "Indianapolis",
		"state" : "Indiana",
		"zipcode" : "46278",
		"nearest_intersec" : "E60",
		"room_no" : ""
	},
	{
		"address_id" : 97,
		"street" : "Talmadge",
		"town" : "San Antonio",
		"state" : "Texas",
		"zipcode" : "78255",
		"nearest_intersec" : "E60",
		"room_no" : ""
	},
	{
		"address_id" : 98,
		"street" : "Jenna",
		"town" : "Washington",
		"state" : "District of Columbia",
		"zipcode" : "20260",
		"nearest_intersec" : "E60",
		"room_no" : ""
	},
	{
		"address_id" : 99,
		"street" : "Moose",
		"town" : "Buffalo",
		"state" : "New York",
		"zipcode" : "14263",
		"nearest_intersec" : "E60",
		"room_no" : ""
	},
	{
		"address_id" : 100,
		"street" : "Everett",
		"town" : "Fullerton",
		"state" : "California",
		"zipcode" : "92835",
		"nearest_intersec" : "E60",
		"room_no" : ""
	}
]
